KUIPER-00095            
1 65134U 25171C   25332.83336806 -.00705002  00000+0 -44238-1 0  9994
2 65134  51.8833 239.2124 0006779 143.8001 350.5831 15.11356358  3712
KUIPER-00096            
1 65135U 25171D   25332.83336806 -.00034895  00000+0 -40433-2 0  9994
2 65135  51.8966 244.1593 0012477 172.6224  28.1375 14.84957888  5171
KUIPER-00097            
1 65136U 25171E   25332.83336806 -.00030811  00000+0 -39037-2 0  9997
2 65136  51.8979 246.6476 0009928 169.9751 113.5111 14.81232274  3610
KUIPER-00098            
1 65137U 25171F   25332.51230238  .00003787  00000+0  52500-3 0  9996
2 65137  51.8988 250.4947 0007836 157.4942 202.6365 14.79969389 17186
KUIPER-00099            
1 65138U 25171G   25332.83336806 -.00009775  00000+0 -68527-3 0  9991
2 65138  51.8916 240.5815 0007022 191.8159  84.5562 15.03722290  5090
KUIPER-00100            
1 65139U 25171H   25332.83336806 -.01001728  00000+0 -62125-1 0  9999
2 65139  51.8922 239.2589 0002783 183.5433   1.1609 15.12336476  4692
KUIPER-00102            
1 65140U 25171J   25332.83336806 -.01250773  00000+0 -95594-1 0  9993
2 65140  51.8899 240.4568 0011893 162.9038  76.8147 15.04330907  4186
KUIPER-00103            
1 65141U 25171K   25332.80803899 -.00000628  00000+0 -53119-4 0  9993
2 65141  51.9006 256.6799 0006840 157.9118 202.2140 14.79922224 17779
